NORAD_CAT_ID,OBJECT_NAME,OBJECT_TYPE,EPOCH,MEAN_MOTION,ECCENTRICITY,INCLINATION,RA_OF_ASC_NODE,ARG_OF_PERICENTER,MEAN_ANOMALY,BSTAR,MEAN_MOTION_DOT,MEAN_MOTION_DDOT,TLE_LINE0,TLE_LINE1,TLE_LINE2,SEMIMAJOR_AXIS,PERIOD,APOGEE,PERIGEE,DECAYED
56451.0,STARLINK-5985,PAYLOAD,2024-03-16 11:47:06,14.98329444,0.0002894,70.0007,168.0701,266.7846,93.2982,-4.2914e-05,-6.05e-06,0.0,0 STARLINK-5985,1 56451U 23064D   24076.49104377 -.00000605  00000-0 -42914-4 0  9997,2 56451  70.0007 168.0701 0002894 266.7846  93.2982 14.98329444 47273,6950.195,96.107,574.071,570.048,0.0
56451.0,STARLINK-5985,PAYLOAD,2024-03-16 13:23:14,14.98329219,0.0002899,70.0007,167.9019,267.0084,93.0743,-4.4048e-05,-6.18e-06,0.0,0 STARLINK-5985,1 56451U 23064D   24076.55780398 -.00000618  00000-0 -44048-4 0  9991,2 56451  70.0007 167.9019 0002899 267.0084  93.0743 14.98329219 46920,6950.195,96.107,574.075,570.045,0.0
56451.0,STARLINK-5985,PAYLOAD,2024-03-16 14:59:22,14.9833059,0.0002869,70.0008,167.7337,267.1269,92.9562,-2.8423e-05,-4.32e-06,0.0,0 STARLINK-5985,1 56451U 23064D   24076.62456264 -.00000432  00000-0 -28423-4 0  9994,2 56451  70.0008 167.7337 0002869 267.1269  92.9562 14.98330590 46937,6950.191,96.107,574.05,570.062,0.0
56451.0,STARLINK-5985,PAYLOAD,2024-03-17 11:49:06,14.98328755,0.0002829,70.0009,165.5461,262.943,97.1407,2.6925e-05,2.28e-06,0.0,0 STARLINK-5985,1 56451U 23064D   24077.49244175  .00000228  00000-0  26925-4 0  9992,2 56451  70.0009 165.5461 0002829 262.9430  97.1407 14.98328755 47421,6950.197,96.107,574.028,570.096,0.0
56451.0,STARLINK-5985,PAYLOAD,2024-03-17 13:25:15,14.98328026,0.0002842,70.001,165.378,263.7749,96.3086,1.6959e-05,1.09e-06,0.0,0 STARLINK-5985,1 56451U 23064D   24077.55920262  .00000109  00000-0  16959-4 0  9991,2 56451  70.0010 165.3780 0002842 263.7749  96.3086 14.98328026 47078,6950.199,96.107,574.039,570.089,0.0
56451.0,STARLINK-5985,PAYLOAD,2024-03-17 16:37:31,14.98329046,0.0002837,70.0009,165.0412,263.4152,96.6684,2.7794e-05,2.39e-06,0.0,0 STARLINK-5985,1 56451U 23064D   24077.69272172  .00000239  00000-0  27794-4 0  9999,2 56451  70.0009 165.0412 0002837 263.4152  96.6684 14.98329046 47096,6950.196,96.107,574.033,570.089,0.0
56451.0,STARLINK-5985,PAYLOAD,2024-03-18 11:51:07,14.98329317,0.0002925,70.0007,163.0214,264.7277,95.3548,1.9266e-05,1.37e-06,0.0,0 STARLINK-5985,1 56451U 23064D   24078.49384154  .00000137  00000-0  19266-4 0  9994,2 56451  70.0007 163.0214 0002925 264.7277  95.3548 14.98329317 47571,6950.195,96.107,574.093,570.027,0.0
56451.0,STARLINK-5985,PAYLOAD,2024-03-19 11:53:08,14.98332807,0.0002926,70.0007,160.4969,262.6788,97.4039,3.0494e-05,2.71e-06,0.0,0 STARLINK-5985,1 56451U 23064D   24079.49523819  .00000271  00000-0  30494-4 0  9993,2 56451  70.0007 160.4969 0002926 262.6788  97.4039 14.98332807 47367,6950.184,96.107,574.083,570.016,0.0
56451.0,STARLINK-5985,PAYLOAD,2024-03-19 13:29:16,14.98335394,0.0002873,70.0008,160.3291,259.8734,100.2101,6.1834e-05,6.45e-06,0.0,0 STARLINK-5985,1 56451U 23064D   24079.56199534  .00000645  00000-0  61834-4 0  9991,2 56451  70.0008 160.3291 0002873 259.8734 100.2101 14.98335394 47733,6950.176,96.107,574.038,570.044,0.0
56451.0,STARLINK-5985,PAYLOAD,2024-03-20 10:19:02,14.98322297,0.0003017,69.9999,158.1392,273.5413,86.5401,-6.7584e-05,-8.99e-06,0.0,0 STARLINK-5985,1 56451U 23064D   24080.42988911 -.00000899  00000-0 -67584-4 0  9994,2 56451  69.9999 158.1392 0003017 273.5413  86.5401 14.98322297 47865,6950.217,96.107,574.179,569.985,0.0
56451.0,STARLINK-5985,PAYLOAD,2024-03-20 13:31:18,14.98323315,0.0003015,69.9999,157.8029,274.1096,85.9719,-5.3162e-05,-7.27e-06,0.0,0 STARLINK-5985,1 56451U 23064D   24080.56340879 -.00000727  00000-0 -53162-4 0  9991,2 56451  69.9999 157.8029 0003015 274.1096  85.9719 14.98323315 47520,6950.214,96.107,574.174,569.983,0.0
56451.0,STARLINK-5985,PAYLOAD,2024-03-20 15:07:26,14.98325634,0.0003062,70.0,157.6356,268.872,91.2089,-2.7479e-05,-4.21e-06,0.0,0 STARLINK-5985,1 56451U 23064D   24080.63016632 -.00000421  00000-0 -27479-4 0  9999,2 56451  70.0000 157.6356 0003062 268.8720  91.2089 14.98325634 47530,6950.206,96.107,574.2,569.943,0.0
56451.0,STARLINK-5985,PAYLOAD,2024-03-21 05:32:38,14.9833061,0.0003097,69.9996,156.121,269.4644,90.616,-4.4934e-05,-6.29e-06,0.0,0 STARLINK-5985,1 56451U 23064D   24081.23100498 -.00000629  00000-0 -44934-4 0  9995,2 56451  69.9996 156.1210 0003097 269.4644  90.6160 14.98330610 47986,6950.191,96.107,574.208,569.904,0.0
56451.0,STARLINK-5985,PAYLOAD,2024-03-21 13:33:18,14.98336269,0.0002814,70.0003,155.279,266.1216,93.9622,6.3234e-05,6.62e-06,0.0,0 STARLINK-5985,1 56451U 23064D   24081.56479811  .00000662  00000-0  63234-4 0  9998,2 56451  70.0003 155.2790 0002814 266.1216  93.9622 14.98336269 48038,6950.174,96.107,573.994,570.083,0.0
56451.0,STARLINK-5985,PAYLOAD,2024-03-22 13:35:19,14.98330975,0.0002415,70.0012,152.7556,261.8257,98.2628,0.00015471,1.754e-05,0.0,0 STARLINK-5985,1 56451U 23064D   24082.56619828  .00001754  00000-0  15471-3 0  9995,2 56451  70.0012 152.7556 0002415 261.8257  98.2628 14.98330975 47822,6950.19,96.107,573.733,570.376,0.0
56451.0,STARLINK-5985,PAYLOAD,2024-03-22 15:11:27,14.98331048,0.0002359,70.0015,152.5878,257.808,102.2815,0.00016052,1.823e-05,0.0,0 STARLINK-5985,1 56451U 23064D   24082.63295796  .00001823  00000-0  16052-3 0  9990,2 56451  70.0015 152.5878 0002359 257.8080 102.2815 14.98331048 48193,6950.19,96.107,573.694,570.415,0.0
56451.0,STARLINK-5985,PAYLOAD,2024-03-23 05:36:40,14.98305686,0.0002604,70.0021,151.0728,254.8896,105.1975,0.00046685,5.478e-05,0.0,0 STARLINK-5985,1 56451U 23064D   24083.23380090  .00005478  00000-0  46685-3 0  9994,2 56451  70.0021 151.0728 0002604 254.8896 105.1975 14.98305686 48281,6950.268,96.109,573.943,570.323,0.0
56451.0,STARLINK-5985,PAYLOAD,2024-03-23 13:37:21,14.98306455,0.0002784,70.0018,150.2309,258.576,101.5086,0.00033337,3.885e-05,0.0,0 STARLINK-5985,1 56451U 23064D   24083.56760824  .00003885  00000-0  33337-3 0  9997,2 56451  70.0018 150.2309 0002784 258.5760 101.5086 14.98306455 47976,6950.266,96.109,574.066,570.196,0.0
56451.0,STARLINK-5985,PAYLOAD,2024-03-24 05:38:40,14.98337497,0.0002716,70.0016,148.5488,249.4409,110.6459,5.77e-05,5.96e-06,0.0,0 STARLINK-5985,1 56451U 23064D   24084.23519181  .00000596  00000-0  57700-4 0  9997,2 56451  70.0016 148.5488 0002716 249.4409 110.6459 14.98337497 48433,6950.17,96.107,573.922,570.147,0.0
56451.0,STARLINK-5985,PAYLOAD,2024-03-24 13:39:20,14.98346015,0.0002917,70.0001,147.7041,264.5879,95.4948,9.2416e-05,1.01e-05,0.0,0 STARLINK-5985,1 56451U 23064D   24084.56898444  .00001010  00000-0  92416-4 0  9990,2 56451  70.0001 147.7041 0002917 264.5879  95.4948 14.98346015 48120,6950.143,96.106,574.036,569.981,0.0
56451.0,STARLINK-5985,PAYLOAD,2024-03-24 21:40:01,14.98335499,0.000261,70.002,146.8626,263.7528,96.3334,3.6233e-05,3.39e-06,0.0,0 STARLINK-5985,1 56451U 23064D   24084.90279229  .00000339  00000-0  36233-4 0  9990,2 56451  70.0020 146.8626 0002610 263.7528  96.3334 14.98335499 48170,6950.176,96.107,573.855,570.227,0.0
56451.0,STARLINK-5985,PAYLOAD,2024-03-25 05:40:42,14.98323885,0.000296,69.9989,146.0159,275.4947,84.5874,8.2427e-08,-9.2e-07,0.0,0 STARLINK-5985,1 56451U 23064D   24085.23660000 -.00000092  00000-0  82427-7 0  9994,2 56451  69.9989 146.0159 0002960 275.4947  84.5874 14.98323885 48586,6950.212,96.107,574.134,570.02,0.0
56451.0,STARLINK-5985,PAYLOAD,2024-03-25 21:42:03,14.98319372,0.0002984,70.0003,144.3362,271.5384,88.5433,-0.0001392,-1.753e-05,0.0,0 STARLINK-5985,1 56451U 23064D   24085.90420971 -.00001753  00000-0 -13920-3 0  9993,2 56451  70.0003 144.3362 0002984 271.5384  88.5433 14.98319372 48324,6950.226,96.108,574.165,570.017,0.0
56451.0,STARLINK-5985,PAYLOAD,2024-03-26 05:42:44,14.9831616,0.0002961,70.0001,143.4954,269.0539,91.028,-0.00021515,-2.658e-05,0.0,0 STARLINK-5985,1 56451U 23064D   24086.23801678 -.00002658  00000-0 -21515-3 0  9991,2 56451  70.0001 143.4954 0002961 269.0539  91.0280 14.98316160 48734,6950.236,96.108,574.159,570.043,0.0
56451.0,STARLINK-5985,PAYLOAD,2024-03-26 13:43:25,14.98316652,0.0002838,70.0,142.6538,266.3844,93.6991,-0.0001832,-2.277e-05,0.0,0 STARLINK-5985,1 56451U 23064D   24086.57181845 -.00002277  00000-0 -18320-3 0  9992,2 56451  70.0000 142.6538 0002838 266.3844  93.6991 14.98316652 48423,6950.234,96.108,574.072,570.127,0.0
56451.0,STARLINK-5985,PAYLOAD,2024-03-27 05:44:45,14.98317771,0.0003173,69.9995,140.9709,274.3604,85.7193,0.00015443,1.75e-05,0.0,0 STARLINK-5985,1 56451U 23064D   24087.23941310  .00001750  00000-0  15443-3 0  9993,2 56451  69.9995 140.9709 0003173 274.3604  85.7193 14.98317771 48889,6950.231,96.108,574.301,569.89,0.0
56451.0,STARLINK-5985,PAYLOAD,2024-03-27 13:45:25,14.98325674,0.0003115,69.9995,140.1294,274.3927,85.6877,0.00014402,1.626e-05,0.0,0 STARLINK-5985,1 56451U 23064D   24087.57321040  .00001626  00000-0  14402-3 0  9998,2 56451  69.9995 140.1294 0003115 274.3927  85.6877 14.98325674 48579,6950.206,96.107,574.236,569.906,0.0
56451.0,STARLINK-5985,PAYLOAD,2024-03-27 20:09:57,14.9833335,0.0003204,69.9992,139.4561,274.0421,86.0372,0.0001614,1.833e-05,0.0,0 STARLINK-5985,1 56451U 23064D   24087.84024536  .00001833  00000-0  16140-3 0  9999,2 56451  69.9992 139.4561 0003204 274.0421  86.0372 14.98333350 48978,6950.183,96.107,574.274,569.821,0.0
56451.0,STARLINK-5985,PAYLOAD,2024-03-28 12:11:16,14.98347084,0.0003169,69.9991,137.7727,273.8119,86.2677,0.00041359,4.847e-05,0.0,0 STARLINK-5985,1 56451U 23064D   24088.50782851  .00004847  00000-0  41359-3 0  9992,2 56451  69.9991 137.7727 0003169 273.8119  86.2677 14.98347084 49074,6950.14,96.106,574.208,569.803,0.0
56451.0,STARLINK-5985,PAYLOAD,2024-03-28 20:11:57,14.98347294,0.0002879,69.9999,136.9278,281.7599,78.3237,0.00015392,1.745e-05,0.0,0 STARLINK-5985,1 56451U 23064D   24088.84163270  .00001745  00000-0  15392-3 0  9999,2 56451  69.9999 136.9278 0002879 281.7599  78.3237 14.98347294 48763,6950.139,96.106,574.005,570.003,0.0
